[{"OBJECT_NAME":"LEMUR-2-JK0903EM1407","OBJECT_ID":"2023-174CJ","EPOCH":"2026-03-05T17:25:05.591424","MEAN_MOTION":15.46430929,"ECCENTRICITY":0.0006234,"INCLINATION":97.3925,"RA_OF_ASC_NODE":152.7243,"ARG_OF_PERICENTER":128.9049,"MEAN_ANOMALY":231.2757,"EPHEMERIS_TYPE":0,"CLASSIFICATION_TYPE":"U","NORAD_CAT_ID":58336,"ELEMENT_SET_NO":999,"REV_AT_EPOCH":12971,"BSTAR":0.00059891,"MEAN_MOTION_DOT":0.00029649,"MEAN_MOTION_DDOT":0},{"OBJECT_NAME":"LEMUR-2-MJR092620","OBJECT_ID":"2023-174CN","EPOCH":"2026-03-05T17:51:32.109696","MEAN_MOTION":15.42006698,"ECCENTRICITY":0.0008117,"INCLINATION":97.3992,"RA_OF_ASC_NODE":153.1186,"ARG_OF_PERICENTER":126.9739,"MEAN_ANOMALY":233.2252,"EPHEMERIS_TYPE":0,"CLASSIFICATION_TYPE":"U","NORAD_CAT_ID":58340,"ELEMENT_SET_NO":999,"REV_AT_EPOCH":12969,"BSTAR":0.00036735,"MEAN_MOTION_DOT":0.00015604,"MEAN_MOTION_DDOT":0},{"OBJECT_NAME":"LEMUR-2-NIMBUS2000","OBJECT_ID":"2024-022A","EPOCH":"2026-03-05T15:42:00.836640","MEAN_MOTION":15.36587788,"ECCENTRICITY":0.001048,"INCLINATION":97.4226,"RA_OF_ASC_NODE":273.531,"ARG_OF_PERICENTER":126.2084,"MEAN_ANOMALY":234.0131,"EPHEMERIS_TYPE":0,"CLASSIFICATION_TYPE":"U","NORAD_CAT_ID":58899,"ELEMENT_SET_NO":999,"REV_AT_EPOCH":11635,"BSTAR":0.00060561,"MEAN_MOTION_DOT":0.00021622,"MEAN_MOTION_DDOT":0},{"OBJECT_NAME":"LEMUR-2-VALHALLA","OBJECT_ID":"2024-022B","EPOCH":"2026-03-05T13:37:18.181920","MEAN_MOTION":15.36347625,"ECCENTRICITY":0.0011078,"INCLINATION":97.4223,"RA_OF_ASC_NODE":273.4788,"ARG_OF_PERICENTER":122.3848,"MEAN_ANOMALY":237.8469,"EPHEMERIS_TYPE":0,"CLASSIFICATION_TYPE":"U","NORAD_CAT_ID":58900,"ELEMENT_SET_NO":999,"REV_AT_EPOCH":11634,"BSTAR":0.00058648,"MEAN_MOTION_DOT":0.00020778,"MEAN_MOTION_DDOT":0},{"OBJECT_NAME":"LEMUR-2-OBA-NI-JESU","OBJECT_ID":"2024-022D","EPOCH":"2026-03-05T13:47:56.490432","MEAN_MOTION":15.64447647,"ECCENTRICITY":0.0005096,"INCLINATION":97.406,"RA_OF_ASC_NODE":282.4241,"ARG_OF_PERICENTER":83.4339,"MEAN_ANOMALY":276.75,"EPHEMERIS_TYPE":0,"CLASSIFICATION_TYPE":"U","NORAD_CAT_ID":58902,"ELEMENT_SET_NO":999,"REV_AT_EPOCH":11695,"BSTAR":0.0010902,"MEAN_MOTION_DOT":0.00105683,"MEAN_MOTION_DDOT":0},{"OBJECT_NAME":"LEMUR-2-CAEL","OBJECT_ID":"2024-022E","EPOCH":"2026-03-05T12:40:40.255680","MEAN_MOTION":15.37482559,"ECCENTRICITY":0.0009427,"INCLINATION":97.4213,"RA_OF_ASC_NODE":274.2063,"ARG_OF_PERICENTER":106.9855,"MEAN_ANOMALY":253.2423,"EPHEMERIS_TYPE":0,"CLASSIFICATION_TYPE":"U","NORAD_CAT_ID":58903,"ELEMENT_SET_NO":999,"REV_AT_EPOCH":11639,"BSTAR":0.00059909,"MEAN_MOTION_DOT":0.00022008,"MEAN_MOTION_DDOT":0},{"OBJECT_NAME":"LEMUR-2-JOHNNYTRUONG","OBJECT_ID":"2024-043BA","EPOCH":"2026-03-05T18:52:07.220352","MEAN_MOTION":15.52765991,"ECCENTRICITY":0.0005371,"INCLINATION":97.5258,"RA_OF_ASC_NODE":210.763,"ARG_OF_PERICENTER":197.2949,"MEAN_ANOMALY":162.8121,"EPHEMERIS_TYPE":0,"CLASSIFICATION_TYPE":"U","NORAD_CAT_ID":59146,"ELEMENT_SET_NO":999,"REV_AT_EPOCH":11195,"BSTAR":0.00064837,"MEAN_MOTION_DOT":0.00040153,"MEAN_MOTION_DDOT":0},{"OBJECT_NAME":"LEMUR-2-TOMATOKECHUP","OBJECT_ID":"2024-149D","EPOCH":"2026-03-05T17:05:50.210016","MEAN_MOTION":15.33630523,"ECCENTRICITY":0.0001094,"INCLINATION":97.3852,"RA_OF_ASC_NODE":146.6557,"ARG_OF_PERICENTER":196.815,"MEAN_ANOMALY":163.3056,"EPHEMERIS_TYPE":0,"CLASSIFICATION_TYPE":"U","NORAD_CAT_ID":60471,"ELEMENT_SET_NO":999,"REV_AT_EPOCH":8629,"BSTAR":0.00045572,"MEAN_MOTION_DOT":0.00014751,"MEAN_MOTION_DDOT":0},{"OBJECT_NAME":"LEMUR-2-STELLA","OBJECT_ID":"2024-149BT","EPOCH":"2026-03-05T17:58:31.890144","MEAN_MOTION":15.09334145,"ECCENTRICITY":0.0001658,"INCLINATION":97.6783,"RA_OF_ASC_NODE":146.9301,"ARG_OF_PERICENTER":95.5454,"MEAN_ANOMALY":264.5964,"EPHEMERIS_TYPE":0,"CLASSIFICATION_TYPE":"U","NORAD_CAT_ID":60533,"ELEMENT_SET_NO":999,"REV_AT_EPOCH":8488,"BSTAR":0.00096625,"MEAN_MOTION_DOT":0.00015373,"MEAN_MOTION_DDOT":0},{"OBJECT_NAME":"LEMUR-2-MARHISYAM","OBJECT_ID":"2024-149BW","EPOCH":"2026-03-05T16:41:12.138432","MEAN_MOTION":15.0888441,"ECCENTRICITY":0.0003402,"INCLINATION":97.6926,"RA_OF_ASC_NODE":147.2116,"ARG_OF_PERICENTER":115.7232,"MEAN_ANOMALY":244.4348,"EPHEMERIS_TYPE":0,"CLASSIFICATION_TYPE":"U","NORAD_CAT_ID":60536,"ELEMENT_SET_NO":999,"REV_AT_EPOCH":8486,"BSTAR":0.00098432,"MEAN_MOTION_DOT":0.00015472,"MEAN_MOTION_DDOT":0},{"OBJECT_NAME":"LEMUR-2-AHMED-ASRAR","OBJECT_ID":"2024-149DN","EPOCH":"2026-03-05T16:35:20.905152","MEAN_MOTION":15.10247855,"ECCENTRICITY":0.0002102,"INCLINATION":97.7038,"RA_OF_ASC_NODE":148.9197,"ARG_OF_PERICENTER":37.605,"MEAN_ANOMALY":322.5325,"EPHEMERIS_TYPE":0,"CLASSIFICATION_TYPE":"U","NORAD_CAT_ID":60576,"ELEMENT_SET_NO":999,"REV_AT_EPOCH":8493,"BSTAR":0.00089708,"MEAN_MOTION_DOT":0.00014629,"MEAN_MOTION_DDOT":0},{"OBJECT_NAME":"LEMUR-2-LLOYD","OBJECT_ID":"2024-149DP","EPOCH":"2026-03-05T17:48:26.214048","MEAN_MOTION":15.07061265,"ECCENTRICITY":0.0005356,"INCLINATION":97.68,"RA_OF_ASC_NODE":145.9681,"ARG_OF_PERICENTER":133.4879,"MEAN_ANOMALY":226.6795,"EPHEMERIS_TYPE":0,"CLASSIFICATION_TYPE":"U","NORAD_CAT_ID":60577,"ELEMENT_SET_NO":999,"REV_AT_EPOCH":8480,"BSTAR":0.00090146,"MEAN_MOTION_DOT":0.00013477,"MEAN_MOTION_DDOT":0},{"OBJECT_NAME":"LEMUR-2-SQUIRRELCOMM","OBJECT_ID":"2024-149DQ","EPOCH":"2026-03-05T16:58:13.363968","MEAN_MOTION":15.05801114,"ECCENTRICITY":0.000612,"INCLINATION":97.6757,"RA_OF_ASC_NODE":146.0304,"ARG_OF_PERICENTER":53.3686,"MEAN_ANOMALY":306.8102,"EPHEMERIS_TYPE":0,"CLASSIFICATION_TYPE":"U","NORAD_CAT_ID":60578,"ELEMENT_SET_NO":999,"REV_AT_EPOCH":8482,"BSTAR":0.00068802,"MEAN_MOTION_DOT":9.923e-5,"MEAN_MOTION_DDOT":0},{"OBJECT_NAME":"LEMUR-2-SIERRINI","OBJECT_ID":"2024-149DR","EPOCH":"2026-03-05T16:43:05.970432","MEAN_MOTION":15.08546315,"ECCENTRICITY":0.0006235,"INCLINATION":97.6888,"RA_OF_ASC_NODE":147.0048,"ARG_OF_PERICENTER":161.0262,"MEAN_ANOMALY":199.12,"EPHEMERIS_TYPE":0,"CLASSIFICATION_TYPE":"U","NORAD_CAT_ID":60579,"ELEMENT_SET_NO":999,"REV_AT_EPOCH":8484,"BSTAR":0.0009997,"MEAN_MOTION_DOT":0.00015575,"MEAN_MOTION_DDOT":0},{"OBJECT_NAME":"LEMUR-2-WILSON","OBJECT_ID":"2025-009CP","EPOCH":"2026-03-05T17:57:28.861344","MEAN_MOTION":14.94649053,"ECCENTRICITY":0.0003716,"INCLINATION":97.7076,"RA_OF_ASC_NODE":145.0465,"ARG_OF_PERICENTER":44.5568,"MEAN_ANOMALY":315.5951,"EPHEMERIS_TYPE":0,"CLASSIFICATION_TYPE":"U","NORAD_CAT_ID":62694,"ELEMENT_SET_NO":999,"REV_AT_EPOCH":6190,"BSTAR":0.00035302,"MEAN_MOTION_DOT":3.77e-5,"MEAN_MOTION_DDOT":0},{"OBJECT_NAME":"LEMUR-2-STAR-FOX","OBJECT_ID":"2025-009CR","EPOCH":"2026-03-05T17:53:49.521120","MEAN_MOTION":15.0078607,"ECCENTRICITY":0.0002299,"INCLINATION":97.7054,"RA_OF_ASC_NODE":147.2224,"ARG_OF_PERICENTER":161.6003,"MEAN_ANOMALY":198.5304,"EPHEMERIS_TYPE":0,"CLASSIFICATION_TYPE":"U","NORAD_CAT_ID":62696,"ELEMENT_SET_NO":999,"REV_AT_EPOCH":6203,"BSTAR":0.00099653,"MEAN_MOTION_DOT":0.00012605,"MEAN_MOTION_DDOT":0}]
